KUIPER-00167            
1 65780U 25217U   25356.25002315 -.00050122  00000+0 -62986-2 0  9996
2 65780  51.8975  27.9608 0002457  40.9720 314.9040 14.81848051  1456
KUIPER-00168            
1 65781U 25217V   25356.25002315 -.00441387  00000+0 -13587-1 0  9996
2 65781  51.8726  17.8441 0001492  69.1094   5.4716 15.34930602  5706
KUIPER-00169            
1 65782U 25217W   25356.25002315 -.01716673  00000+0 -85888-1 0  9994
2 65782  51.8819  19.1777 0005157  43.5237 115.4152 15.20497041  4811
KUIPER-00170            
1 65783U 25217X   25356.25002315 -.00838827  00000+0 -61035-1 0  9998
2 65783  51.9082  22.1737 0007820  41.0165  89.3713 15.05994811  5539
KUIPER-00171            
1 65784U 25217Y   25356.27735180  .00257225  00000+0  19152-2 0  9993
2 65784  51.8565   7.7138 0010636  49.4726 310.7200 15.71398476 13655
KUIPER-00172            
1 65785U 25217Z   25356.25002315 -.01095707  00000+0 -47793-1 0  9998
2 65785  51.8778  18.4308 0005462  42.5161  72.3620 15.24685003  5929
KUIPER-00173            
1 65786U 25217AA  25356.25002315 -.01003082  00000+0 -52208-1 0  9991
2 65786  51.8788  19.3807 0002475 344.2866   8.2947 15.18478361  5212
KUIPER-00174            
1 65787U 25217AB  25356.25002315 -.00130208  00000+0 -42186-2 0  9997
2 65787  51.8762  17.9650 0001152 320.9132  35.7829 15.31962957  5378
